{
"type": "FeatureCollection",
"name": "eess",
"crs": { "type": "name", "properties": { "name": "urn:ogc:def:crs:OGC:1.3:CRS84" } },
"features": [
{ "type": "Feature", "properties": { "full_id": "n272176609", "osm_id": "272176609", "osm_type": "node", "amenity": "fuel", "brand": "YPF", "fuel:diesel": "yes", "fuel:octane_95": "yes", "fuel:octane_98": "yes", "operator": "ESTACION VISION SRL", "brand:wikidata": "", "brand:wikipedia": "", "fuel:cng": "", "name": "", "fuel:octane_91": "", "addr:street": "", "addr:postcode": "", "internet_access": "", "id": 1 }, "geometry": { "type": "Point", "coordinates": [ -65.3962743, -24.7955053 ] } },
{ "type": "Feature", "properties": { "full_id": "n272176827", "osm_id": "272176827", "osm_type": "node", "amenity": "fuel", "brand": "YPF", "fuel:diesel": "yes", "fuel:octane_95": "yes", "fuel:octane_98": "yes", "operator": "MAGNETO S.R.L.", "brand:wikidata": "Q2006989", "brand:wikipedia": "en:YPF", "fuel:cng": "yes", "name": "YPF", "fuel:octane_91": "", "addr:street": "", "addr:postcode": "", "internet_access": "", "id": 2 }, "geometry": { "type": "Point", "coordinates": [ -65.4115803, -24.7460963 ] } },
{ "type": "Feature", "properties": { "full_id": "n272176830", "osm_id": "272176830", "osm_type": "node", "amenity": "fuel", "brand": "YPF", "fuel:diesel": "yes", "fuel:octane_95": "yes", "fuel:octane_98": "yes", "operator": "FLORENCIA S.R.L.", "brand:wikidata": "", "brand:wikipedia": "", "fuel:cng": "yes", "name": "", "fuel:octane_91": "", "addr:street": "", "addr:postcode": "", "internet_access": "", "id": 3 }, "geometry": { "type": "Point", "coordinates": [ -65.40282, -24.78667 ] } },
{ "type": "Feature", "properties": { "full_id": "n272176903", "osm_id": "272176903", "osm_type": "node", "amenity": "fuel", "brand": "YPF", "fuel:diesel": "yes", "fuel:octane_95": "yes", "fuel:octane_98": "yes", "operator": "LUIS A CARRIZO Y CIA SRL", "brand:wikidata": "", "brand:wikipedia": "", "fuel:cng": "", "name": "YPF", "fuel:octane_91": "", "addr:street": "", "addr:postcode": "", "internet_access": "", "id": 4 }, "geometry": { "type": "Point", "coordinates": [ -65.0281626, -24.7370457 ] } },
{ "type": "Feature", "properties": { "full_id": "n1390751792", "osm_id": "1390751792", "osm_type": "node", "amenity": "fuel", "brand": "YPF", "fuel:diesel": "yes", "fuel:octane_95": "yes", "fuel:octane_98": "yes", "operator": "PETRASOL S.R.L.", "brand:wikidata": "", "brand:wikipedia": "", "fuel:cng": "yes", "name": "", "fuel:octane_91": "", "addr:street": "", "addr:postcode": "", "internet_access": "", "id": 5 }, "geometry": { "type": "Point", "coordinates": [ -65.3961458, -24.8083591 ] } },
{ "type": "Feature", "properties": { "full_id": "n1541899153", "osm_id": "1541899153", "osm_type": "node", "amenity": "fuel", "brand": "Bandera Blanca", "fuel:diesel": "", "fuel:octane_95": "", "fuel:octane_98": "", "operator": "SION S.R.L.", "brand:wikidata": "", "brand:wikipedia": "", "fuel:cng": "yes", "name": "", "fuel:octane_91": "", "addr:street": "", "addr:postcode": "", "internet_access": "", "id": 6 }, "geometry": { "type": "Point", "coordinates": [ -65.0543486, -24.6677618 ] } },
{ "type": "Feature", "properties": { "full_id": "n1559491312", "osm_id": "1559491312", "osm_type": "node", "amenity": "fuel", "brand": "YPF", "fuel:diesel": "yes", "fuel:octane_95": "yes", "fuel:octane_98": "yes", "operator": "SERVISUR S.R.L.", "brand:wikidata": "", "brand:wikipedia": "", "fuel:cng": "yes", "name": "", "fuel:octane_91": "", "addr:street": "", "addr:postcode": "", "internet_access": "", "id": 7 }, "geometry": { "type": "Point", "coordinates": [ -65.4337878, -24.8411649 ] } },
{ "type": "Feature", "properties": { "full_id": "n1991225494", "osm_id": "1991225494", "osm_type": "node", "amenity": "fuel", "brand": "Refinor", "fuel:diesel": "", "fuel:octane_95": "yes", "fuel:octane_98": "yes", "operator": "OCTANO S.R.L.", "brand:wikidata": "", "brand:wikipedia": "", "fuel:cng": "yes", "name": "", "fuel:octane_91": "", "addr:street": "", "addr:postcode": "", "internet_access": "", "id": 8 }, "geometry": { "type": "Point", "coordinates": [ -65.4235454, -24.8130381 ] } },
{ "type": "Feature", "properties": { "full_id": "n2021633768", "osm_id": "2021633768", "osm_type": "node", "amenity": "fuel", "brand": "YPF", "fuel:diesel": "yes", "fuel:octane_95": "yes", "fuel:octane_98": "yes", "operator": "SUC. DE ROBERTO SAMAN S.R.L.", "brand:wikidata": "", "brand:wikipedia": "", "fuel:cng": "yes", "name": "", "fuel:octane_91": "", "addr:street": "", "addr:postcode": "", "internet_access": "", "id": 9 }, "geometry": { "type": "Point", "coordinates": [ -65.4970037, -25.0738038 ] } },
{ "type": "Feature", "properties": { "full_id": "n2078825370", "osm_id": "2078825370", "osm_type": "node", "amenity": "fuel", "brand": "Shell", "fuel:diesel": "yes", "fuel:octane_95": "yes", "fuel:octane_98": "yes", "operator": "MONTERO JOSE S.A.C.A.F.I.E.I.", "brand:wikidata": "", "brand:wikipedia": "", "fuel:cng": "yes", "name": "", "fuel:octane_91": "", "addr:street": "", "addr:postcode": "", "internet_access": "", "id": 10 }, "geometry": { "type": "Point", "coordinates": [ -65.3969913, -24.7956759 ] } },
{ "type": "Feature", "properties": { "full_id": "n2079099070", "osm_id": "2079099070", "osm_type": "node", "amenity": "fuel", "brand": "Shell", "fuel:diesel": "yes", "fuel:octane_95": "yes", "fuel:octane_98": "yes", "operator": "M LOGISTICA Y DISTRIBUCION S.R.L.", "brand:wikidata": "", "brand:wikipedia": "", "fuel:cng": "yes", "name": "", "fuel:octane_91": "", "addr:street": "", "addr:postcode": "", "internet_access": "", "id": 11 }, "geometry": { "type": "Point", "coordinates": [ -65.4429959, -24.7687101 ] } },
{ "type": "Feature", "properties": { "full_id": "n2118055069", "osm_id": "2118055069", "osm_type": "node", "amenity": "fuel", "brand": "YPF", "fuel:diesel": "yes", "fuel:octane_95": "yes", "fuel:octane_98": "yes", "operator": "OPESSA SALTA", "brand:wikidata": "", "brand:wikipedia": "", "fuel:cng": "", "name": "", "fuel:octane_91": "", "addr:street": "", "addr:postcode": "", "internet_access": "", "id": 12 }, "geometry": { "type": "Point", "coordinates": [ -65.4031926, -24.7802015 ] } },
{ "type": "Feature", "properties": { "full_id": "n2261843920", "osm_id": "2261843920", "osm_type": "node", "amenity": "fuel", "brand": "Refinor", "fuel:diesel": "yes", "fuel:octane_95": "yes", "fuel:octane_98": "yes", "operator": "MERPE S.R.L.", "brand:wikidata": "", "brand:wikipedia": "", "fuel:cng": "yes", "name": "Refinor", "fuel:octane_91": "", "addr:street": "", "addr:postcode": "", "internet_access": "", "id": 13 }, "geometry": { "type": "Point", "coordinates": [ -65.41182, -24.75764 ] } },
{ "type": "Feature", "properties": { "full_id": "n2390519355", "osm_id": "2390519355", "osm_type": "node", "amenity": "fuel", "brand": "YPF", "fuel:diesel": "yes", "fuel:octane_95": "yes", "fuel:octane_98": "yes", "operator": "JACARANDA S.A.", "brand:wikidata": "", "brand:wikipedia": "", "fuel:cng": "yes", "name": "", "fuel:octane_91": "", "addr:street": "", "addr:postcode": "", "internet_access": "", "id": 14 }, "geometry": { "type": "Point", "coordinates": [ -65.42926, -24.7798 ] } },
{ "type": "Feature", "properties": { "full_id": "n2390525954", "osm_id": "2390525954", "osm_type": "node", "amenity": "fuel", "brand": "YPF", "fuel:diesel": "yes", "fuel:octane_95": "yes", "fuel:octane_98": "yes", "operator": "SERVIGAS S.R.L.", "brand:wikidata": "Q2006989", "brand:wikipedia": "en:YPF", "fuel:cng": "yes", "name": "YPF", "fuel:octane_91": "", "addr:street": "", "addr:postcode": "", "internet_access": "", "id": 15 }, "geometry": { "type": "Point", "coordinates": [ -65.4497171, -24.8384734 ] } },
{ "type": "Feature", "properties": { "full_id": "n2390527264", "osm_id": "2390527264", "osm_type": "node", "amenity": "fuel", "brand": "Shell", "fuel:diesel": "", "fuel:octane_95": "", "fuel:octane_98": "", "operator": "EL CONVOY S.R.L.", "brand:wikidata": "", "brand:wikipedia": "", "fuel:cng": "yes", "name": "", "fuel:octane_91": "", "addr:street": "", "addr:postcode": "", "internet_access": "", "id": 16 }, "geometry": { "type": "Point", "coordinates": [ -65.4300377, -24.8287434 ] } },
{ "type": "Feature", "properties": { "full_id": "n2390530208", "osm_id": "2390530208", "osm_type": "node", "amenity": "fuel", "brand": "YPF", "fuel:diesel": "yes", "fuel:octane_95": "yes", "fuel:octane_98": "yes", "operator": "EL CHANGO S.R.L.", "brand:wikidata": "", "brand:wikipedia": "", "fuel:cng": "yes", "name": "", "fuel:octane_91": "yes", "addr:street": "", "addr:postcode": "", "internet_access": "", "id": 17 }, "geometry": { "type": "Point", "coordinates": [ -65.4198929, -24.805913 ] } },
{ "type": "Feature", "properties": { "full_id": "n2902104609", "osm_id": "2902104609", "osm_type": "node", "amenity": "fuel", "brand": "YPF", "fuel:diesel": "yes", "fuel:octane_95": "yes", "fuel:octane_98": "yes", "operator": "EL JAGUEL SA", "brand:wikidata": "", "brand:wikipedia": "", "fuel:cng": "yes", "name": "", "fuel:octane_91": "", "addr:street": "", "addr:postcode": "", "internet_access": "", "id": 18 }, "geometry": { "type": "Point", "coordinates": [ -65.0454016, -24.6874962 ] } },
{ "type": "Feature", "properties": { "full_id": "n3128631880", "osm_id": "3128631880", "osm_type": "node", "amenity": "fuel", "brand": "Refinor", "fuel:diesel": "", "fuel:octane_95": "", "fuel:octane_98": "", "operator": "LUMER", "brand:wikidata": "", "brand:wikipedia": "", "fuel:cng": "", "name": "", "fuel:octane_91": "", "addr:street": "Avenida Toledo", "addr:postcode": "", "internet_access": "", "id": 19 }, "geometry": { "type": "Point", "coordinates": [ -65.40272, -24.78402 ] } },
{ "type": "Feature", "properties": { "full_id": "n3217499928", "osm_id": "3217499928", "osm_type": "node", "amenity": "fuel", "brand": "Bandera Blanca", "fuel:diesel": "", "fuel:octane_95": "yes", "fuel:octane_98": "", "operator": "ACTION VIS S.A.", "brand:wikidata": "", "brand:wikipedia": "", "fuel:cng": "yes", "name": "", "fuel:octane_91": "", "addr:street": "", "addr:postcode": "", "internet_access": "", "id": 20 }, "geometry": { "type": "Point", "coordinates": [ -65.41646, -24.7871 ] } },
{ "type": "Feature", "properties": { "full_id": "n3220401952", "osm_id": "3220401952", "osm_type": "node", "amenity": "fuel", "brand": "YPF", "fuel:diesel": "yes", "fuel:octane_95": "yes", "fuel:octane_98": "yes", "operator": "BUCCOLINI Y CIA. S.R.L.", "brand:wikidata": "Q2006989", "brand:wikipedia": "en:YPF", "fuel:cng": "yes", "name": "YPF", "fuel:octane_91": "", "addr:street": "", "addr:postcode": "", "internet_access": "", "id": 21 }, "geometry": { "type": "Point", "coordinates": [ -65.4162168, -24.8025454 ] } },
{ "type": "Feature", "properties": { "full_id": "n3220403381", "osm_id": "3220403381", "osm_type": "node", "amenity": "fuel", "brand": "Shell", "fuel:diesel": "yes", "fuel:octane_95": "yes", "fuel:octane_98": "yes", "operator": "M. B. ENERGY S.R.L.", "brand:wikidata": "Q154950", "brand:wikipedia": "en:Royal Dutch Shell", "fuel:cng": "yes", "name": "Shell", "fuel:octane_91": "", "addr:street": "", "addr:postcode": "4403", "internet_access": "", "id": 22 }, "geometry": { "type": "Point", "coordinates": [ -65.4822053, -24.8937245 ] } },
{ "type": "Feature", "properties": { "full_id": "n3220403382", "osm_id": "3220403382", "osm_type": "node", "amenity": "fuel", "brand": "Bandera Blanca", "fuel:diesel": "", "fuel:octane_95": "yes", "fuel:octane_98": "", "operator": "LA CALDERA S.A.", "brand:wikidata": "", "brand:wikipedia": "", "fuel:cng": "yes", "name": "", "fuel:octane_91": "", "addr:street": "", "addr:postcode": "", "internet_access": "", "id": 23 }, "geometry": { "type": "Point", "coordinates": [ -65.4857685, -24.8990532 ] } },
{ "type": "Feature", "properties": { "full_id": "n3452585758", "osm_id": "3452585758", "osm_type": "node", "amenity": "fuel", "brand": "Shell", "fuel:diesel": "", "fuel:octane_95": "", "fuel:octane_98": "", "operator": "AMARU S.R.L.", "brand:wikidata": "", "brand:wikipedia": "", "fuel:cng": "yes", "name": "", "fuel:octane_91": "", "addr:street": "", "addr:postcode": "", "internet_access": "", "id": 24 }, "geometry": { "type": "Point", "coordinates": [ -65.3976575, -24.7709023 ] } },
{ "type": "Feature", "properties": { "full_id": "n3452705205", "osm_id": "3452705205", "osm_type": "node", "amenity": "fuel", "brand": "YPF", "fuel:diesel": "yes", "fuel:octane_95": "yes", "fuel:octane_98": "yes", "operator": "GEMINIS S.A.", "brand:wikidata": "", "brand:wikipedia": "", "fuel:cng": "yes", "name": "", "fuel:octane_91": "", "addr:street": "", "addr:postcode": "", "internet_access": "", "id": 25 }, "geometry": { "type": "Point", "coordinates": [ -65.424477, -24.8154721 ] } },
{ "type": "Feature", "properties": { "full_id": "n3452713987", "osm_id": "3452713987", "osm_type": "node", "amenity": "fuel", "brand": "Refinor", "fuel:diesel": "yes", "fuel:octane_95": "yes", "fuel:octane_98": "yes", "operator": "MULTILUB S.R.L.", "brand:wikidata": "", "brand:wikipedia": "", "fuel:cng": "yes", "name": "", "fuel:octane_91": "", "addr:street": "", "addr:postcode": "", "internet_access": "", "id": 26 }, "geometry": { "type": "Point", "coordinates": [ -65.4331974, -24.8409384 ] } },
{ "type": "Feature", "properties": { "full_id": "n3452758713", "osm_id": "3452758713", "osm_type": "node", "amenity": "", "brand": "YPF", "fuel:diesel": "yes", "fuel:octane_95": "yes", "fuel:octane_98": "yes", "operator": "Independencia S.R.L.", "brand:wikidata": "", "brand:wikipedia": "", "fuel:cng": "yes", "name": "", "fuel:octane_91": "", "addr:street": "", "addr:postcode": "", "internet_access": "", "id": 27 }, "geometry": { "type": "Point", "coordinates": [ -65.4057368, -24.8079619 ] } },
{ "type": "Feature", "properties": { "full_id": "n3452761970", "osm_id": "3452761970", "osm_type": "node", "amenity": "fuel", "brand": "YPF", "fuel:diesel": "yes", "fuel:octane_95": "yes", "fuel:octane_98": "yes", "operator": "PETRO GAS S.R.L.", "brand:wikidata": "", "brand:wikipedia": "", "fuel:cng": "yes", "name": "", "fuel:octane_91": "", "addr:street": "", "addr:postcode": "", "internet_access": "", "id": 28 }, "geometry": { "type": "Point", "coordinates": [ -65.43238, -24.79874 ] } },
{ "type": "Feature", "properties": { "full_id": "n3452834686", "osm_id": "3452834686", "osm_type": "node", "amenity": "fuel", "brand": "YPF", "fuel:diesel": "", "fuel:octane_95": "", "fuel:octane_98": "", "operator": "SERVISUR S.R.L.", "brand:wikidata": "", "brand:wikipedia": "", "fuel:cng": "yes", "name": "", "fuel:octane_91": "", "addr:street": "", "addr:postcode": "", "internet_access": "", "id": 29 }, "geometry": { "type": "Point", "coordinates": [ -65.427478, -24.786262 ] } },
{ "type": "Feature", "properties": { "full_id": "n3452932585", "osm_id": "3452932585", "osm_type": "node", "amenity": "fuel", "brand": "YPF", "fuel:diesel": "", "fuel:octane_95": "yes", "fuel:octane_98": "yes", "operator": "ESTACIÃ“N CAMPO SANTO SRL", "brand:wikidata": "", "brand:wikipedia": "", "fuel:cng": "", "name": "", "fuel:octane_91": "", "addr:street": "", "addr:postcode": "", "internet_access": "", "id": 30 }, "geometry": { "type": "Point", "coordinates": [ -65.10156, -24.68027 ] } },
{ "type": "Feature", "properties": { "full_id": "n3452934353", "osm_id": "3452934353", "osm_type": "node", "amenity": "fuel", "brand": "YPF", "fuel:diesel": "yes", "fuel:octane_95": "yes", "fuel:octane_98": "yes", "operator": "SOLO GAS S.R.L.", "brand:wikidata": "Q2006989", "brand:wikipedia": "en:YPF", "fuel:cng": "yes", "name": "YPF", "fuel:octane_91": "", "addr:street": "", "addr:postcode": "", "internet_access": "", "id": 31 }, "geometry": { "type": "Point", "coordinates": [ -65.0499748, -24.6749034 ] } },
{ "type": "Feature", "properties": { "full_id": "n3452951772", "osm_id": "3452951772", "osm_type": "node", "amenity": "fuel", "brand": "YPF", "fuel:diesel": "yes", "fuel:octane_95": "yes", "fuel:octane_98": "yes", "operator": "LARRAN CARLOS A Y MEDINA DE MUSSO MARIA E SH", "brand:wikidata": "", "brand:wikipedia": "", "fuel:cng": "", "name": "", "fuel:octane_91": "", "addr:street": "", "addr:postcode": "", "internet_access": "", "id": 32 }, "geometry": { "type": "Point", "coordinates": [ -65.4052421, -24.7193702 ] } },
{ "type": "Feature", "properties": { "full_id": "n3452991798", "osm_id": "3452991798", "osm_type": "node", "amenity": "fuel", "brand": "Bandera Blanca", "fuel:diesel": "", "fuel:octane_95": "", "fuel:octane_98": "", "operator": "M. B. ENERGY S.R.L.", "brand:wikidata": "", "brand:wikipedia": "", "fuel:cng": "yes", "name": "", "fuel:octane_91": "", "addr:street": "", "addr:postcode": "", "internet_access": "", "id": 33 }, "geometry": { "type": "Point", "coordinates": [ -65.4816231, -24.8920692 ] } },
{ "type": "Feature", "properties": { "full_id": "n3453176802", "osm_id": "3453176802", "osm_type": "node", "amenity": "fuel", "brand": "YPF", "fuel:diesel": "yes", "fuel:octane_95": "yes", "fuel:octane_98": "yes", "operator": "MANANTIALES S.A.", "brand:wikidata": "", "brand:wikipedia": "", "fuel:cng": "yes", "name": "", "fuel:octane_91": "", "addr:street": "", "addr:postcode": "", "internet_access": "", "id": 34 }, "geometry": { "type": "Point", "coordinates": [ -65.5752206, -24.9841363 ] } },
{ "type": "Feature", "properties": { "full_id": "n3453181019", "osm_id": "3453181019", "osm_type": "node", "amenity": "fuel", "brand": "YPF", "fuel:diesel": "yes", "fuel:octane_95": "yes", "fuel:octane_98": "", "operator": "E\/S EL MILAGRO SRL", "brand:wikidata": "", "brand:wikipedia": "", "fuel:cng": "", "name": "", "fuel:octane_91": "", "addr:street": "", "addr:postcode": "", "internet_access": "", "id": 35 }, "geometry": { "type": "Point", "coordinates": [ -65.4886493, -24.9640673 ] } },
{ "type": "Feature", "properties": { "full_id": "n3453183483", "osm_id": "3453183483", "osm_type": "node", "amenity": "fuel", "brand": "YPF", "fuel:diesel": "yes", "fuel:octane_95": "yes", "fuel:octane_98": "", "operator": "SUCESORES DE ROBERTO SAMAN SRL", "brand:wikidata": "", "brand:wikipedia": "", "fuel:cng": "", "name": "", "fuel:octane_91": "", "addr:street": "", "addr:postcode": "", "internet_access": "", "id": 36 }, "geometry": { "type": "Point", "coordinates": [ -65.53392, -25.10483 ] } },
{ "type": "Feature", "properties": { "full_id": "n3454722803", "osm_id": "3454722803", "osm_type": "node", "amenity": "fuel", "brand": "Axion", "fuel:diesel": "yes", "fuel:octane_95": "yes", "fuel:octane_98": "yes", "operator": "SERVINORTE LOS NIETOS S.R.L.", "brand:wikidata": "Q62131749", "brand:wikipedia": "", "fuel:cng": "yes", "name": "Axion", "fuel:octane_91": "", "addr:street": "", "addr:postcode": "", "internet_access": "wlan", "id": 37 }, "geometry": { "type": "Point", "coordinates": [ -65.411859, -24.76886 ] } },
{ "type": "Feature", "properties": { "full_id": "n3454801030", "osm_id": "3454801030", "osm_type": "node", "amenity": "fuel", "brand": "Refinor", "fuel:diesel": "", "fuel:octane_95": "yes", "fuel:octane_98": "yes", "operator": "PETRO GAS S.R.L.", "brand:wikidata": "", "brand:wikipedia": "", "fuel:cng": "yes", "name": "", "fuel:octane_91": "", "addr:street": "", "addr:postcode": "", "internet_access": "", "id": 38 }, "geometry": { "type": "Point", "coordinates": [ -65.39926, -24.79459 ] } },
{ "type": "Feature", "properties": { "full_id": "n3454802542", "osm_id": "3454802542", "osm_type": "node", "amenity": "fuel", "brand": "Bandera Blanca", "fuel:diesel": "", "fuel:octane_95": "", "fuel:octane_98": "", "operator": "PLANTA REVESA S.R.L", "brand:wikidata": "", "brand:wikipedia": "", "fuel:cng": "yes", "name": "", "fuel:octane_91": "", "addr:street": "", "addr:postcode": "", "internet_access": "", "id": 39 }, "geometry": { "type": "Point", "coordinates": [ -65.4115879, -24.8191686 ] } },
{ "type": "Feature", "properties": { "full_id": "n3454822331", "osm_id": "3454822331", "osm_type": "node", "amenity": "fuel", "brand": "Refinor", "fuel:diesel": "yes", "fuel:octane_95": "yes", "fuel:octane_98": "yes", "operator": "LA CONSTRUCTORA S.A.", "brand:wikidata": "", "brand:wikipedia": "", "fuel:cng": "yes", "name": "", "fuel:octane_91": "", "addr:street": "", "addr:postcode": "", "internet_access": "", "id": 40 }, "geometry": { "type": "Point", "coordinates": [ -65.40486, -24.79548 ] } },
{ "type": "Feature", "properties": { "full_id": "n3454879423", "osm_id": "3454879423", "osm_type": "node", "amenity": "fuel", "brand": "Bandera Blanca", "fuel:diesel": "", "fuel:octane_95": "", "fuel:octane_98": "", "operator": "SION S.R.L.", "brand:wikidata": "", "brand:wikipedia": "", "fuel:cng": "yes", "name": "Car Gas GNC", "fuel:octane_91": "", "addr:street": "", "addr:postcode": "", "internet_access": "", "id": 41 }, "geometry": { "type": "Point", "coordinates": [ -65.4105901, -24.8235869 ] } },
{ "type": "Feature", "properties": { "full_id": "n3454883993", "osm_id": "3454883993", "osm_type": "node", "amenity": "fuel", "brand": "YPF", "fuel:diesel": "", "fuel:octane_95": "", "fuel:octane_98": "", "operator": "SURTIDORES LOS NIETOS S.R.L.", "brand:wikidata": "", "brand:wikipedia": "", "fuel:cng": "yes", "name": "", "fuel:octane_91": "", "addr:street": "", "addr:postcode": "", "internet_access": "", "id": 42 }, "geometry": { "type": "Point", "coordinates": [ -65.4098551, -24.827253 ] } },
{ "type": "Feature", "properties": { "full_id": "n3796358044", "osm_id": "3796358044", "osm_type": "node", "amenity": "fuel", "brand": "Refinor", "fuel:diesel": "yes", "fuel:octane_95": "yes", "fuel:octane_98": "yes", "operator": "LAJAR SRL", "brand:wikidata": "", "brand:wikipedia": "", "fuel:cng": "", "name": "", "fuel:octane_91": "", "addr:street": "", "addr:postcode": "", "internet_access": "", "id": 43 }, "geometry": { "type": "Point", "coordinates": [ -65.4877088, -24.7351553 ] } },
{ "type": "Feature", "properties": { "full_id": "n3796358046", "osm_id": "3796358046", "osm_type": "node", "amenity": "fuel", "brand": "Refinor", "fuel:diesel": "", "fuel:octane_95": "yes", "fuel:octane_98": "", "operator": "EL GRAMILLAL A.G.I.S.C.A.", "brand:wikidata": "", "brand:wikipedia": "", "fuel:cng": "", "name": "", "fuel:octane_91": "", "addr:street": "", "addr:postcode": "", "internet_access": "", "id": 44 }, "geometry": { "type": "Point", "coordinates": [ -64.69004, -25.38358 ] } },
{ "type": "Feature", "properties": { "full_id": "n3802853255", "osm_id": "3802853255", "osm_type": "node", "amenity": "fuel", "brand": "Bandera Blanca", "fuel:diesel": "", "fuel:octane_95": "", "fuel:octane_98": "", "operator": "Siloe S.R.L.", "brand:wikidata": "", "brand:wikipedia": "", "fuel:cng": "yes", "name": "", "fuel:octane_91": "", "addr:street": "", "addr:postcode": "", "internet_access": "", "id": 45 }, "geometry": { "type": "Point", "coordinates": [ -65.40033, -24.81348 ] } },
{ "type": "Feature", "properties": { "full_id": "n3813304955", "osm_id": "3813304955", "osm_type": "node", "amenity": "fuel", "brand": "Axion", "fuel:diesel": "yes", "fuel:octane_95": "yes", "fuel:octane_98": "yes", "operator": "OCTANO S.R.L.", "brand:wikidata": "", "brand:wikipedia": "", "fuel:cng": "yes", "name": "", "fuel:octane_91": "", "addr:street": "", "addr:postcode": "", "internet_access": "", "id": 46 }, "geometry": { "type": "Point", "coordinates": [ -65.4307883, -24.8313578 ] } },
{ "type": "Feature", "properties": { "full_id": "n3841537296", "osm_id": "3841537296", "osm_type": "node", "amenity": "fuel", "brand": "YPF", "fuel:diesel": "yes", "fuel:octane_95": "yes", "fuel:octane_98": "yes", "operator": "ACA SALTA", "brand:wikidata": "", "brand:wikipedia": "", "fuel:cng": "", "name": "", "fuel:octane_91": "", "addr:street": "", "addr:postcode": "", "internet_access": "", "id": 47 }, "geometry": { "type": "Point", "coordinates": [ -65.4101646, -24.7823041 ] } },
{ "type": "Feature", "properties": { "full_id": "n3919089836", "osm_id": "3919089836", "osm_type": "node", "amenity": "fuel", "brand": "YPF", "fuel:diesel": "yes", "fuel:octane_95": "yes", "fuel:octane_98": "yes", "operator": "NUEVA ESTACION DE SERVICIO BOLIVAR SRL", "brand:wikidata": "", "brand:wikipedia": "", "fuel:cng": "", "name": "", "fuel:octane_91": "", "addr:street": "", "addr:postcode": "", "internet_access": "", "id": 48 }, "geometry": { "type": "Point", "coordinates": [ -65.420415, -24.7877384 ] } },
{ "type": "Feature", "properties": { "full_id": "n3919089837", "osm_id": "3919089837", "osm_type": "node", "amenity": "fuel", "brand": "YPF", "fuel:diesel": "", "fuel:octane_95": "yes", "fuel:octane_98": "yes", "operator": "E\/S EL TRIUNFO SRL", "brand:wikidata": "", "brand:wikipedia": "", "fuel:cng": "", "name": "", "fuel:octane_91": "", "addr:street": "", "addr:postcode": "", "internet_access": "", "id": 49 }, "geometry": { "type": "Point", "coordinates": [ -65.43263, -24.79711 ] } },
{ "type": "Feature", "properties": { "full_id": "n3919089840", "osm_id": "3919089840", "osm_type": "node", "amenity": "fuel", "brand": "Bandera Blanca", "fuel:diesel": "", "fuel:octane_95": "", "fuel:octane_98": "", "operator": "GONZALEZ MARIA LIDIA", "brand:wikidata": "", "brand:wikipedia": "", "fuel:cng": "", "name": "", "fuel:octane_91": "", "addr:street": "", "addr:postcode": "", "internet_access": "", "id": 50 }, "geometry": { "type": "Point", "coordinates": [ -64.6788542, -25.3820216 ] } },
{ "type": "Feature", "properties": { "full_id": "n5065226652", "osm_id": "5065226652", "osm_type": "node", "amenity": "fuel", "brand": "Bandera Blanca", "fuel:diesel": "", "fuel:octane_95": "", "fuel:octane_98": "", "operator": "Felipe Mohamed Amado", "brand:wikidata": "", "brand:wikipedia": "", "fuel:cng": "yes", "name": "GNC Felipe", "fuel:octane_91": "", "addr:street": "", "addr:postcode": "", "internet_access": "", "id": 51 }, "geometry": { "type": "Point", "coordinates": [ -65.0491517, -24.6765272 ] } },
{ "type": "Feature", "properties": { "full_id": "n6245949989", "osm_id": "6245949989", "osm_type": "node", "amenity": "fuel", "brand": "", "fuel:diesel": "", "fuel:octane_95": "", "fuel:octane_98": "", "operator": "MARCELO MEDRANO DE LA SERNA", "brand:wikidata": "", "brand:wikipedia": "", "fuel:cng": "yes", "name": "", "fuel:octane_91": "", "addr:street": "", "addr:postcode": "", "internet_access": "", "id": 52 }, "geometry": { "type": "Point", "coordinates": [ -65.4619288, -24.8389566 ] } }
]
}
